[{"OBJECT_NAME":"POLYITAN-1","OBJECT_ID":"2014-033AJ","EPOCH":"2026-03-09T22:27:50.258304","MEAN_MOTION":15.29568085,"ECCENTRICITY":0.00093607,"INCLINATION":98.1053,"RA_OF_ASC_NODE":86.0432,"ARG_OF_PERICENTER":127.248,"MEAN_ANOMALY":232.9614,"EPHEMERIS_TYPE":0,"CLASSIFICATION_TYPE":"U","NORAD_CAT_ID":40042,"ELEMENT_SET_NO":999,"REV_AT_EPOCH":63840,"BSTAR":0.00083772474,"MEAN_MOTION_DOT":0.00024003,"MEAN_MOTION_DDOT":0},{"OBJECT_NAME":"STARLINK-31550","OBJECT_ID":"2024-057U","EPOCH":"2026-03-09T08:30:09.303840","MEAN_MOTION":15.27581044,"ECCENTRICITY":0.00013198,"INCLINATION":43.0001,"RA_OF_ASC_NODE":189.319,"ARG_OF_PERICENTER":268.8625,"MEAN_ANOMALY":91.2076,"EPHEMERIS_TYPE":0,"CLASSIFICATION_TYPE":"U","NORAD_CAT_ID":59338,"ELEMENT_SET_NO":999,"REV_AT_EPOCH":10978,"BSTAR":-8.2223334e-5,"MEAN_MOTION_DOT":-2.524e-5,"MEAN_MOTION_DDOT":0}]
